[{"OBJECT_NAME":"ONEWEB-0206","OBJECT_ID":"2021-031T","EPOCH":"2026-04-07T02:13:48.175680","MEAN_MOTION":13.14503974,"ECCENTRICITY":0.0001758,"INCLINATION":87.8945,"RA_OF_ASC_NODE":303.8866,"ARG_OF_PERICENTER":94.0015,"MEAN_ANOMALY":266.1316,"EPHEMERIS_TYPE":0,"CLASSIFICATION_TYPE":"U","NORAD_CAT_ID":48227,"ELEMENT_SET_NO":999,"REV_AT_EPOCH":23888,"BSTAR":0.00062671,"MEAN_MOTION_DOT":2.45e-06,"MEAN_MOTION_DDOT":0.0},{"OBJECT_NAME":"ONEWEB-0182","OBJECT_ID":"2021-031U","EPOCH":"2026-04-07T02:06:55.428192","MEAN_MOTION":13.14503033,"ECCENTRICITY":0.0001468,"INCLINATION":87.8935,"RA_OF_ASC_NODE":303.8981,"ARG_OF_PERICENTER":92.7393,"MEAN_ANOMALY":267.3905,"EPHEMERIS_TYPE":0,"CLASSIFICATION_TYPE":"U","NORAD_CAT_ID":48228,"ELEMENT_SET_NO":999,"REV_AT_EPOCH":23909,"BSTAR":-0.00011048,"MEAN_MOTION_DOT":-2.8e-07,"MEAN_MOTION_DDOT":0.0},{"OBJECT_NAME":"ONEWEB-0186","OBJECT_ID":"2021-031V","EPOCH":"2026-04-07T02:22:54.760224","MEAN_MOTION":13.14501285,"ECCENTRICITY":0.0001636,"INCLINATION":87.8936,"RA_OF_ASC_NODE":303.8836,"ARG_OF_PERICENTER":83.6812,"MEAN_ANOMALY":276.4504,"EPHEMERIS_TYPE":0,"CLASSIFICATION_TYPE":"U","NORAD_CAT_ID":48229,"ELEMENT_SET_NO":999,"REV_AT_EPOCH":23904,"BSTAR":0.0007291299999999999,"MEAN_MOTION_DOT":2.83e-06,"MEAN_MOTION_DDOT":0.0},{"OBJECT_NAME":"ONEWEB-0181","OBJECT_ID":"2021-031W","EPOCH":"2026-04-07T00:01:19.609824","MEAN_MOTION":13.14502509,"ECCENTRICITY":0.0001692,"INCLINATION":87.8929,"RA_OF_ASC_NODE":303.9417,"ARG_OF_PERICENTER":81.048,"MEAN_ANOMALY":279.0841,"EPHEMERIS_TYPE":0,"CLASSIFICATION_TYPE":"U","NORAD_CAT_ID":48230,"ELEMENT_SET_NO":999,"REV_AT_EPOCH":23888,"BSTAR":-0.00066706,"MEAN_MOTION_DOT":-2.35e-06,"MEAN_MOTION_DDOT":0.0},{"OBJECT_NAME":"ONEWEB-0188","OBJECT_ID":"2021-031X","EPOCH":"2026-04-07T02:45:44.236512","MEAN_MOTION":13.14502656,"ECCENTRICITY":0.0001632,"INCLINATION":87.8926,"RA_OF_ASC_NODE":303.9172,"ARG_OF_PERICENTER":86.1579,"MEAN_ANOMALY":273.9737,"EPHEMERIS_TYPE":0,"CLASSIFICATION_TYPE":"U","NORAD_CAT_ID":48231,"ELEMENT_SET_NO":999,"REV_AT_EPOCH":23880,"BSTAR":-0.00043577,"MEAN_MOTION_DOT":-1.49e-06,"MEAN_MOTION_DDOT":0.0},{"OBJECT_NAME":"ONEWEB-0220","OBJECT_ID":"2021-031Y","EPOCH":"2026-04-07T00:03:36.672192","MEAN_MOTION":13.14503096,"ECCENTRICITY":0.0001508,"INCLINATION":87.894,"RA_OF_ASC_NODE":303.9022,"ARG_OF_PERICENTER":81.5256,"MEAN_ANOMALY":278.6045,"EPHEMERIS_TYPE":0,"CLASSIFICATION_TYPE":"U","NORAD_CAT_ID":48232,"ELEMENT_SET_NO":999,"REV_AT_EPOCH":23905,"BSTAR":-0.00041962,"MEAN_MOTION_DOT":-1.43e-06,"MEAN_MOTION_DDOT":0.0},{"OBJECT_NAME":"ONEWEB-0165","OBJECT_ID":"2021-031Z","EPOCH":"2026-04-07T06:13:33.599424","MEAN_MOTION":13.14503221,"ECCENTRICITY":0.0001841,"INCLINATION":87.8941,"RA_OF_ASC_NODE":303.8679,"ARG_OF_PERICENTER":76.8345,"MEAN_ANOMALY":283.2991,"EPHEMERIS_TYPE":0,"CLASSIFICATION_TYPE":"U","NORAD_CAT_ID":48233,"ELEMENT_SET_NO":999,"REV_AT_EPOCH":23904,"BSTAR":-0.00011349,"MEAN_MOTION_DOT":-2.9e-07,"MEAN_MOTION_DDOT":0.0},{"OBJECT_NAME":"ONEWEB-0199","OBJECT_ID":"2021-031AA","EPOCH":"2026-04-07T02:11:30.622560","MEAN_MOTION":13.14502678,"ECCENTRICITY":0.0001707,"INCLINATION":87.8945,"RA_OF_ASC_NODE":303.8835,"ARG_OF_PERICENTER":93.3746,"MEAN_ANOMALY":266.7579,"EPHEMERIS_TYPE":0,"CLASSIFICATION_TYPE":"U","NORAD_CAT_ID":48234,"ELEMENT_SET_NO":999,"REV_AT_EPOCH":23892,"BSTAR":0.0006237899999999999,"MEAN_MOTION_DOT":2.44e-06,"MEAN_MOTION_DDOT":0.0},{"OBJECT_NAME":"ONEWEB-0203","OBJECT_ID":"2021-031AB","EPOCH":"2026-04-07T00:08:11.120928","MEAN_MOTION":13.14501569,"ECCENTRICITY":0.000187,"INCLINATION":87.8949,"RA_OF_ASC_NODE":303.9023,"ARG_OF_PERICENTER":86.9442,"MEAN_ANOMALY":273.1901,"EPHEMERIS_TYPE":0,"CLASSIFICATION_TYPE":"U","NORAD_CAT_ID":48235,"ELEMENT_SET_NO":999,"REV_AT_EPOCH":23892,"BSTAR":0.00019167999999999998,"MEAN_MOTION_DOT":8.4e-07,"MEAN_MOTION_DDOT":0.0},{"OBJECT_NAME":"ONEWEB-0197","OBJECT_ID":"2021-031AC","EPOCH":"2026-04-07T03:10:39.257184","MEAN_MOTION":13.14501025,"ECCENTRICITY":0.000143,"INCLINATION":87.8935,"RA_OF_ASC_NODE":303.8719,"ARG_OF_PERICENTER":94.7006,"MEAN_ANOMALY":265.4287,"EPHEMERIS_TYPE":0,"CLASSIFICATION_TYPE":"U","NORAD_CAT_ID":48236,"ELEMENT_SET_NO":999,"REV_AT_EPOCH":23885,"BSTAR":-0.0005552399999999999,"MEAN_MOTION_DOT":-1.93e-06,"MEAN_MOTION_DDOT":0.0},{"OBJECT_NAME":"ONEWEB-0194","OBJECT_ID":"2021-031AD","EPOCH":"2026-04-07T06:20:23.634816","MEAN_MOTION":13.14502385,"ECCENTRICITY":0.0001865,"INCLINATION":87.8938,"RA_OF_ASC_NODE":303.8645,"ARG_OF_PERICENTER":91.8719,"MEAN_ANOMALY":268.2625,"EPHEMERIS_TYPE":0,"CLASSIFICATION_TYPE":"U","NORAD_CAT_ID":48237,"ELEMENT_SET_NO":999,"REV_AT_EPOCH":23904,"BSTAR":-0.00035368,"MEAN_MOTION_DOT":-1.18e-06,"MEAN_MOTION_DDOT":0.0},{"OBJECT_NAME":"ONEWEB-0193","OBJECT_ID":"2021-031AE","EPOCH":"2026-04-07T03:04:00.230016","MEAN_MOTION":13.14501514,"ECCENTRICITY":0.0002055,"INCLINATION":87.8936,"RA_OF_ASC_NODE":303.8831,"ARG_OF_PERICENTER":96.3894,"MEAN_ANOMALY":263.747,"EPHEMERIS_TYPE":0,"CLASSIFICATION_TYPE":"U","NORAD_CAT_ID":48238,"ELEMENT_SET_NO":999,"REV_AT_EPOCH":23897,"BSTAR":-0.00049451,"MEAN_MOTION_DOT":-1.71e-06,"MEAN_MOTION_DDOT":0.0},{"OBJECT_NAME":"ONEWEB-0191","OBJECT_ID":"2021-031AF","EPOCH":"2026-04-06T23:40:47.487072","MEAN_MOTION":13.14503609,"ECCENTRICITY":0.000151,"INCLINATION":87.8937,"RA_OF_ASC_NODE":303.9068,"ARG_OF_PERICENTER":91.115,"MEAN_ANOMALY":269.0153,"EPHEMERIS_TYPE":0,"CLASSIFICATION_TYPE":"U","NORAD_CAT_ID":48239,"ELEMENT_SET_NO":999,"REV_AT_EPOCH":23881,"BSTAR":-0.0010395,"MEAN_MOTION_DOT":-3.73e-06,"MEAN_MOTION_DDOT":0.0},{"OBJECT_NAME":"ONEWEB-0195","OBJECT_ID":"2021-031AG","EPOCH":"2026-04-07T02:46:53.130144","MEAN_MOTION":13.14500969,"ECCENTRICITY":0.0001829,"INCLINATION":87.8949,"RA_OF_ASC_NODE":303.8782,"ARG_OF_PERICENTER":74.3338,"MEAN_ANOMALY":285.7993,"EPHEMERIS_TYPE":0,"CLASSIFICATION_TYPE":"U","NORAD_CAT_ID":48240,"ELEMENT_SET_NO":999,"REV_AT_EPOCH":23881,"BSTAR":0.00027965,"MEAN_MOTION_DOT":1.16e-06,"MEAN_MOTION_DDOT":0.0},{"OBJECT_NAME":"ONEWEB-0201","OBJECT_ID":"2021-031AH","EPOCH":"2026-04-07T02:29:57.791040","MEAN_MOTION":13.14502567,"ECCENTRICITY":0.0001305,"INCLINATION":87.8931,"RA_OF_ASC_NODE":303.9066,"ARG_OF_PERICENTER":81.672,"MEAN_ANOMALY":278.4557,"EPHEMERIS_TYPE":0,"CLASSIFICATION_TYPE":"U","NORAD_CAT_ID":48241,"ELEMENT_SET_NO":999,"REV_AT_EPOCH":23904,"BSTAR":0.0003564,"MEAN_MOTION_DOT":1.45e-06,"MEAN_MOTION_DDOT":0.0},{"OBJECT_NAME":"ONEWEB-0207","OBJECT_ID":"2021-031AJ","EPOCH":"2026-04-07T02:01:12.882432","MEAN_MOTION":13.14502241,"ECCENTRICITY":0.0001413,"INCLINATION":87.8949,"RA_OF_ASC_NODE":303.8862,"ARG_OF_PERICENTER":85.3586,"MEAN_ANOMALY":274.7705,"EPHEMERIS_TYPE":0,"CLASSIFICATION_TYPE":"U","NORAD_CAT_ID":48242,"ELEMENT_SET_NO":999,"REV_AT_EPOCH":23895,"BSTAR":0.00031245000000000003,"MEAN_MOTION_DOT":1.29e-06,"MEAN_MOTION_DDOT":0.0}]