ONEWEB-0206             
1 48227U 21031T   26097.09291870  .00000245  00000+0  62671-3 0  9995
2 48227  87.8945 303.8866 0001758  94.0015 266.1316 13.14503974238881
ONEWEB-0182             
1 48228U 21031U   26097.08814153 -.00000028  00000+0 -11048-3 0  9993
2 48228  87.8935 303.8981 0001468  92.7393 267.3905 13.14503033239098
ONEWEB-0186             
1 48229U 21031V   26097.09924491  .00000283  00000+0  72913-3 0  9991
2 48229  87.8936 303.8836 0001636  83.6812 276.4504 13.14501285239049
ONEWEB-0181             
1 48230U 21031W   26097.00092141 -.00000235  00000+0 -66706-3 0  9994
2 48230  87.8929 303.9417 0001692  81.0480 279.0841 13.14502509238888
ONEWEB-0188             
1 48231U 21031X   26097.11509533 -.00000149  00000+0 -43577-3 0  9990
2 48231  87.8926 303.9172 0001632  86.1579 273.9737 13.14502656238805
ONEWEB-0220             
1 48232U 21031Y   26097.00250778 -.00000143  00000+0 -41962-3 0  9993
2 48232  87.8940 303.9022 0001508  81.5256 278.6045 13.14503096239050
ONEWEB-0165             
1 48233U 21031Z   26097.25941666 -.00000029  00000+0 -11349-3 0  9993
2 48233  87.8941 303.8679 0001841  76.8345 283.2991 13.14503221239046
ONEWEB-0199             
1 48234U 21031AA  26097.09132665  .00000244  00000+0  62379-3 0  9993
2 48234  87.8945 303.8835 0001707  93.3746 266.7579 13.14502678238924
ONEWEB-0203             
1 48235U 21031AB  26097.00568427  .00000084  00000+0  19168-3 0  9994
2 48235  87.8949 303.9023 0001870  86.9442 273.1901 13.14501569238920
ONEWEB-0197             
1 48236U 21031AC  26097.13239881 -.00000193  00000+0 -55524-3 0  9997
2 48236  87.8935 303.8719 0001430  94.7006 265.4287 13.14501025238852
ONEWEB-0194             
1 48237U 21031AD  26097.26416244 -.00000118  00000+0 -35368-3 0  9993
2 48237  87.8938 303.8645 0001865  91.8719 268.2625 13.14502385239044
ONEWEB-0193             
1 48238U 21031AE  26097.12778044 -.00000171  00000+0 -49451-3 0  9995
2 48238  87.8936 303.8831 0002055  96.3894 263.7470 13.14501514238978
ONEWEB-0191             
1 48239U 21031AF  26096.98666073 -.00000373  00000+0 -10395-2 0  9995
2 48239  87.8937 303.9068 0001510  91.1150 269.0153 13.14503609238813
ONEWEB-0195             
1 48240U 21031AG  26097.11589271  .00000116  00000+0  27965-3 0  9992
2 48240  87.8949 303.8782 0001829  74.3338 285.7993 13.14500969238817
ONEWEB-0201             
1 48241U 21031AH  26097.10414110  .00000145  00000+0  35640-3 0  9992
2 48241  87.8931 303.9066 0001305  81.6720 278.4557 13.14502567239047
ONEWEB-0207             
1 48242U 21031AJ  26097.08417688  .00000129  00000+0  31245-3 0  9992
2 48242  87.8949 303.8862 0001413  85.3586 274.7705 13.14502241238953
